satname,norad_id,inclination_deg,eccentricity,mean_motion_rev_per_day,perigee_km,apogee_km,l1,l2
STARLINK-1169,45061,53.0545,0.00013,15.06414739,546.2660959542973,548.0666748344993,1 45061U 20006T   25276.39092427  .00025110  00000+0  16979-2 0  9994,2 45061  53.0545 272.7648 0001300  88.4153 271.6985 15.06414739312755
STARLINK-1171,45062,53.0522,0.0001274,15.06406772,546.3085160492992,548.073089573456,1 45062U 20006U   25277.70311627  .00006897  00000+0  48134-3 0  9997,2 45062  53.0522 266.8683 0001274 113.0139 247.0985 15.06406772312950
STARLINK-1133,45064,53.0527,0.0001323,15.06397148,546.3040741506584,548.1365236919528,1 45064U 20006W   25276.32271766  .00002895  00000+0  21316-3 0  9992,2 45064  53.0527 253.0642 0001323  99.6734 260.4405 15.06397148313026
STARLINK-1150,45067,53.0345,0.0006275,16.24065207,204.4043269738122,212.67060342763943,1 45067U 20006Z   25277.86934990  .03555043  11910-4  12846-2 0  9995,2 45067  53.0345 181.9113 0006275 237.9822 122.0608 16.24065207314157
STARLINK-1167,45071,53.0513,0.0001456,15.06397128,546.2120281869702,548.2286922502662,1 45071U 20006AD  25277.60910591  .00000775  00000+0  70921-4 0  9990,2 45071  53.0513 247.2911 0001456  83.8175 276.2980 15.06397128313216
STARLINK-1168,45072,53.053,0.0001399,15.06379461,546.3056426604298,548.2433728002916,1 45072U 20006AE  25276.35221356  .00004383  00000+0  31316-3 0  9999,2 45072  53.0530 252.9349 0001399  95.8162 264.2987 15.06379461313022
STARLINK-1172,45074,53.0538,0.0001494,15.06389307,546.2096786662669,548.2789826078615,1 45074U 20006AG  25276.62865527  .00000865  00000+0  76981-4 0  9994,2 45074  53.0538 251.6949 0001494  92.1669 267.9491 15.06389307313066
STARLINK-1153,45080,53.0531,0.0001563,15.06398491,546.1337501073294,548.2986155122753,1 45080U 20006AN  25276.34115262  .00000421  00000+0  47149-4 0  9996,2 45080  53.0531 252.9832 0001563  93.0457 267.0710 15.06398491313028
STARLINK-1151,45081,53.0556,0.0001544,15.06395528,546.1559880745363,548.2945399416612,1 45081U 20006AP  25277.65335624  .00000161  00000+0  29739-4 0  9994,2 45081  53.0556 247.1645 0001544 100.9648 259.1515 15.06395528313228
STARLINK-1190,45083,53.0464,0.0007594,15.78053477,330.8574893604691,341.0548540696691,1 45083U 20006AR  25277.91667823  .00175493  00000+0  99240-3 0  9998,2 45083  53.0464 211.4093 0007594  89.7374  57.0957 15.78053477  5989
STARLINK-1173,45084,53.0419,0.0004353,15.91628188,294.820166388331,300.6321728638068,1 45084U 20006AS  25277.91667823  .00354054  58460-4  10713-2 0  9996,2 45084  53.0419 174.2010 0004353  74.1289 131.8445 15.91628188  6052
STARLINK-1179,45085,53.026,0.000419,16.37414635,169.94418541756022,175.43377759006034,1 45085U 20006AT  25277.95185512  .07594430  12248-4  75056-3 0  9998,2 45085  53.0260 162.3858 0004190 231.2013 128.8658 16.37414635314432
STARLINK-1185,45087,53.0531,0.0001493,15.06407757,546.1538329622636,548.221734942751,1 45087U 20006AV  25277.56303919  .00005399  00000+0  38098-3 0  9997,2 45087  53.0531 227.4964 0001493  82.1333 277.9825 15.06407757313496
STARLINK-1183,45088,53.0516,0.0001688,15.06399046,546.0454824822891,548.3834811425486,1 45088U 20006AW  25277.85053429  .00001202  00000+0  99580-4 0  9991,2 45088  53.0516 226.2105 0001688  84.8626 275.2556 15.06399046313532
STARLINK-1176,45090,53.0471,0.0001796,15.88537285,305.1825495645053,307.5836291806081,1 45090U 20006AY  25277.91667823  .00318644  00000+0  10806-2 0  9993,2 45090  53.0471 172.1935 0001796  58.7219 176.9930 15.88537285  5993
STARLINK-1142,45093,53.0376,0.0005227,15.53714042,402.34731594354616,409.4393412490608,1 45093U 20006BB  25277.43799258  .00130227  00000+0  19735-2 0  9990,2 45093  53.0376 171.1453 0005227 128.7502 231.3975 15.53714042314279
STARLINK-1146,45094,53.03,0.0005828,16.40479494,160.71423195485295,168.34036145909522,1 45094U 20006BC  25277.13349934  .09429169  12325-4  64418-3 0  9992,2 45094  53.0300 167.5563 0005828 238.9445 121.1029 16.40479494314299
STARLINK-1147,45095,53.0372,0.0001769,16.04022542,262.1170637361256,264.4668012924494,1 45095U 20006BD  25277.74881957  .00630208  19986-3  95296-3 0  9992,2 45095  53.0372 168.5513 0001769 108.9970 251.1252 16.04022542314339
STARLINK-1152,45096,53.0464,0.0008518,15.2226549,493.15097765524933,504.8668834625487,1 45096U 20006BE  25277.55417928  .00017287  00000+0  75358-3 0  9991,2 45096  53.0464 212.8855 0008518  87.5713 272.6258 15.22265490313692
STARLINK-1184,45098,53.0574,0.0001915,15.06396732,545.8953677388026,548.5477800726076,1 45098U 20006BG  25277.86529148  .00002015  00000+0  15419-3 0  9990,2 45098  53.0574 226.1412 0001915  90.3895 269.7313 15.06396732313538
STARLINK-1193,45100,53.0537,0.000156,15.06391987,546.155758531846,548.3164749442694,1 45100U 20006BJ  25277.86159632 -.00002768  00000+0 -16706-3 0  9998,2 45100  53.0537 226.1551 0001560  94.7730 265.3437 15.06391987313533
STARLINK-1143,45179,53.0565,0.0004739,15.36315235,453.77749340263654,460.2558520536495,1 45179U 20012B   25277.62278140  .00069682  00000+0  19320-2 0  9991,2 45179  53.0565 356.9960 0004739 286.2178  73.8302 15.36315235311740
STARLINK-1202,45183,53.0563,0.0001167,15.06394434,546.42042681165,548.0368071466528,1 45183U 20012F   25277.59252473  .00001941  00000+0  14915-3 0  9993,2 45183  53.0563  27.3650 0001167  87.3713 272.7410 15.06394434311313
STARLINK-1216,45185,53.055,0.0001016,15.06387516,546.5462005635945,547.9534391653906,1 45185U 20012H   25277.58515374  .00000545  00000+0  55503-4 0  9994,2 45185  53.0550  27.3992 0001016  80.7816 279.3288 15.06387516311256
STARLINK-1225,45187,53.0565,0.0001756,15.06381905,546.0509161168739,548.4831180076662,1 45187U 20012K   25277.60359139 -.00000259  00000+0  15163-5 0  9996,2 45187  53.0565  27.3203 0001756 100.4298 259.6889 15.06381905311304
STARLINK-1230,45189,53.0549,0.0001419,15.06388913,546.2628264226969,548.2282499870398,1 45189U 20012M   25277.60726919 -.00000329  00000+0 -31904-5 0  9992,2 45189  53.0549  27.3000 0001419  90.0216 270.0936 15.06388913308530
STARLINK-1234,45190,53.0559,0.0001362,15.06408777,546.2414290182114,548.1278866378034,1 45190U 20012N   25277.62571294  .00006917  00000+0  48267-3 0  9995,2 45190  53.0559 347.2180 0001362  94.9150 265.1995 15.06408777311774
STARLINK-1269,45197,53.0553,0.0001743,15.06396578,546.0149558135745,548.4291359769732,1 45197U 20012V   25277.68469109  .00008280  00000+0  57418-3 0  9992,2 45197  53.0553  26.9547 0001743  79.1581 280.9604 15.06396578311293
STARLINK-1154,45198,53.0561,0.00015,15.0638129,546.2300911017728,548.3077128723689,1 45198U 20012W   25277.54277558 -.00003753  00000+0 -23330-3 0  9991,2 45198  53.0561   7.5882 0001500  88.0423 272.0738 15.06381290311526
STARLINK-1199,45201,53.056,0.0001743,15.06400498,546.0029436528084,548.4171196280386,1 45201U 20012Z   25277.55381697  .00002173  00000+0  16476-3 0  9993,2 45201  53.0560   7.5414 0001743  88.9812 271.1376 15.06400498311587
STARLINK-1209,45206,53.0575,0.0001603,15.06396046,546.1135410888764,548.3338117217309,1 45206U 20012AE  25277.62939929  .00004669  00000+0  33219-3 0  9999,2 45206  53.0575 347.2066 0001603 102.1162 258.0006 15.06396046310921
STARLINK-1210,45207,53.0272,0.0012757,15.4969716,408.9419337634363,426.28060589908455,1 45207U 20012AF  25276.50881012  .00105087  00000+0  18413-2 0  9999,2 45207  53.0272 321.3985 0012757 310.9389  49.0514 15.49697160312147
STARLINK-1231,45212,53.0534,0.000271,15.10240097,533.5935723545263,537.3407458087486,1 45212U 20012AL  25277.65459694  .00027733  00000+0  16876-2 0  9991,2 45212  53.0534   6.3253 0002710 283.2072  76.8616 15.10240097311568
STARLINK-1271,45217,53.0559,0.000146,15.063906,546.2292626385524,548.2514728299311,1 45217U 20012AR  25277.67177257  .00019974  00000+0  13564-2 0  9999,2 45217  53.0559   7.0098 0001460  81.2468 278.8686 15.06390600311608
STARLINK-1191,45222,53.0551,0.0001366,15.06401274,546.2616512348759,548.1536553941623,1 45222U 20012AW  25277.48196047  .00003320  00000+0  24168-3 0  9993,2 45222  53.0551 347.8645 0001366  83.1694 276.9450 15.06401274311851
STARLINK-1212,45223,53.056,0.00014,15.06401803,546.2364839839865,548.1755800329502,1 45223U 20012AX  25277.63316334  .00008174  00000+0  56700-3 0  9993,2 45223  53.0560 347.8402 0001400  92.0683 268.0466 15.06401803311878
STARLINK-1215,45225,53.0552,0.0001408,15.06406301,546.2171599902158,548.1673327059889,1 45225U 20012AZ  25276.59364192  .00007484  00000+0  52069-3 0  9991,2 45225  53.0552 351.8502 0001408 111.9213 248.1926 15.06406301311671
STARLINK-1217,45226,53.039,0.0001754,15.99097816,275.75334209747416,278.08793631730805,1 45226U 20012BA  25277.91667823  .00542942  13860-3  10949-2 0  9991,2 45226  53.0390 288.2964 0001754  39.7247 135.4427 15.99097816  6062
STARLINK-1221,45227,53.0674,0.0002082,15.35670431,457.50637763385294,460.353332272256,1 45227U 20012BB  25277.45044028  .00020903  00000+0  60322-3 0  9994,2 45227  53.0674 286.4699 0002082 233.9071 126.1738 15.35670431312658
STARLINK-1222,45228,53.0551,0.0001192,15.06391424,546.4123375866066,548.063346949004,1 45228U 20012BC  25277.48932105  .00028888  00000+0  19508-2 0  9999,2 45228  53.0551 347.8286 0001192  88.9441 271.1684 15.06391424311747
STARLINK-1226,45229,53.0554,0.000124,15.06410521,546.3205735534666,548.0380519990358,1 45229U 20012BD  25276.58996408  .00018885  00000+0  12829-2 0  9991,2 45229  53.0554 351.8662 0001240  84.8769 275.2362 15.06410521311610
STARLINK-1227,45230,53.0545,0.0001326,15.06407694,546.2696789448282,548.1062751287382,1 45230U 20012BE  25277.44876920 -.00006943  00000+0 -44757-3 0  9995,2 45230  53.0545 348.0111 0001326  80.4240 279.6898 15.06407694311866
STARLINK-1238,45233,53.0239,0.000243,16.39594295,165.2915204462406,168.47239966082634,1 45233U 20012BH  25278.01866617  .09268364  12322-4  71142-3 0  9991,2 45233  53.0239 302.1149 0002430 223.6492 136.4362 16.39594295312529
